NORAD_CAT_ID,OBJECT_NAME,OBJECT_TYPE,EPOCH,MEAN_MOTION,ECCENTRICITY,INCLINATION,RA_OF_ASC_NODE,ARG_OF_PERICENTER,MEAN_ANOMALY,BSTAR,MEAN_MOTION_DOT,MEAN_MOTION_DDOT,TLE_LINE0,TLE_LINE1,TLE_LINE2,SEMIMAJOR_AXIS,PERIOD,APOGEE,PERIGEE,DECAYED
49134.0,STARLINK-3078,PAYLOAD,2023-05-25 18:15:25,14.9833016,0.0003097,69.9997,343.542,271.0013,89.0792,8.71e-05,9.46e-06,0.0,0 STARLINK-3078,1 49134U 21082E   23145.76070784  .00000946  00000-0  87100-4 0  9997,2 49134  69.9997 343.5420 0003097 271.0013  89.0792 14.98330160 94559,6950.192,96.107,574.21,569.905,0.0
49134.0,STARLINK-3078,PAYLOAD,2023-05-25 21:27:41,14.98331618,0.0003068,69.9997,343.2055,270.8385,89.2422,0.00010199,1.124e-05,0.0,0 STARLINK-3078,1 49134U 21082E   23145.89422640  .00001124  00000-0  10199-3 0  9995,2 49134  69.9997 343.2055 0003068 270.8385  89.2422 14.98331618 94570,6950.188,96.107,574.185,569.921,0.0
49134.0,STARLINK-3078,PAYLOAD,2023-05-26 13:29:01,14.98330721,0.0002935,70.0001,341.5229,267.3479,92.7344,3.5391e-05,3.29e-06,0.0,0 STARLINK-3078,1 49134U 21082E   23146.56182829  .00000329  00000-0  35391-4 0  9990,2 49134  70.0001 341.5229 0002935 267.3479  92.7344 14.98330721 94677,6950.191,96.107,574.096,570.016,0.0
49134.0,STARLINK-3078,PAYLOAD,2023-05-26 21:29:42,14.98329971,0.0002978,70.0,340.6812,267.7477,92.3341,1.9107e-05,1.35e-06,0.0,0 STARLINK-3078,1 49134U 21082E   23146.89562895  .00000135  00000-0  19107-4 0  9993,2 49134  70.0000 340.6812 0002978 267.7477  92.3341 14.98329971 94727,6950.193,96.107,574.128,569.988,0.0
49134.0,STARLINK-3078,PAYLOAD,2023-05-26 23:05:50,14.98330419,0.0002975,70.0,340.5125,267.8326,92.2493,2.3302e-05,1.85e-06,0.0,0 STARLINK-3078,1 49134U 21082E   23146.96238852  .00000185  00000-0  23302-4 0  9991,2 49134  70.0000 340.5125 0002975 267.8326  92.2493 14.98330419 94731,6950.192,96.107,574.124,569.989,0.0
49134.0,STARLINK-3078,PAYLOAD,2023-05-27 21:31:43,14.98332935,0.000298,70.0,338.156,267.1568,92.925,3.2038e-06,-5.5e-07,0.0,0 STARLINK-3078,1 49134U 21082E   23147.89702597 -.00000055  00000-0  32038-5 0  9990,2 49134  70.0000 338.1560 0002980 267.1568  92.9250 14.98332935 94872,6950.184,96.107,574.12,569.978,0.0
49134.0,STARLINK-3078,PAYLOAD,2023-05-27 23:07:51,14.98332945,0.0002981,70.0,337.9876,267.4279,92.6539,3.3527e-06,-5.3e-07,0.0,0 STARLINK-3078,1 49134U 21082E   23147.96378585 -.00000053  00000-0  33527-5 0  9996,2 49134  70.0000 337.9876 0002981 267.4279  92.6539 14.98332945 94881,6950.184,96.107,574.121,569.977,0.0
49134.0,STARLINK-3078,PAYLOAD,2023-05-28 05:32:23,14.98331379,0.0002995,70.0,337.3143,266.7054,93.3763,5.8247e-06,-2.3e-07,0.0,0 STARLINK-3078,1 49134U 21082E   23148.23082642 -.00000023  00000-0  58247-5 0  9996,2 49134  70.0000 337.3143 0002995 266.7054  93.3763 14.98331379 94922,6950.189,96.107,574.135,569.972,0.0
49134.0,STARLINK-3078,PAYLOAD,2023-05-28 21:33:43,14.98332901,0.000307,69.9997,335.6304,268.205,91.8758,5.1555e-05,5.22e-06,0.0,0 STARLINK-3078,1 49134U 21082E   23148.89842333  .00000522  00000-0  51555-4 0  9996,2 49134  69.9997 335.6304 0003070 268.2050  91.8758 14.98332901 95023,6950.184,96.107,574.183,569.915,0.0
49134.0,STARLINK-3078,PAYLOAD,2023-05-29 05:34:24,14.98331385,0.0003049,69.9998,334.7886,270.8371,89.2439,1.9147e-05,1.35e-06,0.0,0 STARLINK-3078,1 49134U 21082E   23149.23222488  .00000135  00000-0  19147-4 0  9999,2 49134  69.9998 334.7886 0003049 270.8371  89.2439 14.98331385 95077,6950.189,96.107,574.173,569.934,0.0
49134.0,STARLINK-3078,PAYLOAD,2023-05-29 13:35:04,14.98329026,0.0003054,69.9997,333.9471,270.4139,89.667,-1.1748e-05,-2.33e-06,0.0,0 STARLINK-3078,1 49134U 21082E   23149.56602702 -.00000233  00000-0 -11748-4 0  9996,2 49134  69.9997 333.9471 0003054 270.4139  89.6670 14.98329026 95127,6950.196,96.107,574.183,569.938,0.0
49134.0,STARLINK-3078,PAYLOAD,2023-05-29 21:35:45,14.98328604,0.0003084,69.9997,333.1056,269.6719,90.4087,-1.6318e-05,-2.88e-06,0.0,0 STARLINK-3078,1 49134U 21082E   23149.89982739 -.00000288  00000-0 -16318-4 0  9991,2 49134  69.9997 333.1056 0003084 269.6719  90.4087 14.98328604 95173,6950.197,96.107,574.206,569.919,0.0
49134.0,STARLINK-3078,PAYLOAD,2023-05-30 05:36:25,14.98328021,0.0003118,69.9997,332.264,270.6154,89.4647,-1.0185e-05,-2.15e-06,0.0,0 STARLINK-3078,1 49134U 21082E   23150.23362779 -.00000215  00000-0 -10185-4 0  9993,2 49134  69.9997 332.2640 0003118 270.6154  89.4647 14.98328021 95224,6950.199,96.107,574.231,569.897,0.0
49134.0,STARLINK-3078,PAYLOAD,2023-05-30 12:00:57,14.98329745,0.0003127,69.9996,331.5908,270.6354,89.4447,-4.3978e-06,-1.45e-06,0.0,0 STARLINK-3078,1 49134U 21082E   23150.50066676 -.00000145  00000-0 -43978-5 0  9999,2 49134  69.9996 331.5908 0003127 270.6354  89.4447 14.98329745 95260,6950.194,96.107,574.232,569.885,0.0
49134.0,STARLINK-3078,PAYLOAD,2023-05-30 21:37:45,14.9833235,0.0003159,69.9996,330.5807,270.5948,89.4849,2.0531e-05,1.52e-06,0.0,0 STARLINK-3078,1 49134U 21082E   23150.90122408  .00000152  00000-0  20531-4 0  9994,2 49134  69.9996 330.5807 0003159 270.5948  89.4849 14.98332350 95329,6950.186,96.107,574.246,569.855,0.0
49134.0,STARLINK-3078,PAYLOAD,2023-05-31 05:38:26,14.98331945,0.0003182,69.9996,329.7387,270.6951,89.3843,3.1108e-05,2.78e-06,0.0,0 STARLINK-3078,1 49134U 21082E   23151.23502368  .00000278  00000-0  31108-4 0  9999,2 49134  69.9996 329.7387 0003182 270.6951  89.3843 14.98331945 95370,6950.187,96.107,574.263,569.84,0.0
49134.0,STARLINK-3078,PAYLOAD,2023-05-31 13:39:06,14.98329154,0.0003215,69.9995,328.8968,270.1364,89.9427,7.241e-05,7.71e-06,0.0,0 STARLINK-3078,1 49134U 21082E   23151.56882405  .00000771  00000-0  72410-4 0  9997,2 49134  69.9995 328.8968 0003215 270.1364  89.9427 14.98329154 95423,6950.196,96.107,574.295,569.826,0.0
49134.0,STARLINK-3078,PAYLOAD,2023-05-31 21:39:46,14.98333616,0.00032,69.9995,328.0551,270.0823,89.9969,9.0015e-05,9.81e-06,0.0,0 STARLINK-3078,1 49134U 21082E   23151.90262061  .00000981  00000-0  90015-4 0  9999,2 49134  69.9995 328.0551 0003200 270.0823  89.9969 14.98333616 95470,6950.182,96.107,574.271,569.823,0.0
49134.0,STARLINK-3078,PAYLOAD,2023-06-01 13:41:07,14.98330272,0.0003142,69.9996,326.3716,270.2008,89.8791,2.0682e-05,1.54e-06,0.0,0 STARLINK-3078,1 49134U 21082E   23152.57022424  .00000154  00000-0  20682-4 0  9995,2 49134  69.9996 326.3716 0003142 270.2008  89.8791 14.98330272 95575,6950.192,96.107,574.241,569.873,0.0
49134.0,STARLINK-3078,PAYLOAD,2023-06-02 13:43:08,14.98330186,0.0003086,69.9993,323.8466,270.2622,89.8183,-1.2368e-05,-2.41e-06,0.0,0 STARLINK-3078,1 49134U 21082E   23153.57162423 -.00000241  00000-0 -12368-4 0  9991,2 49134  69.9993 323.8466 0003086 270.2622  89.8183 14.98330186 95721,6950.192,96.107,574.202,569.912,0.0
49134.0,STARLINK-3078,PAYLOAD,2023-06-02 18:31:32,14.98329663,0.0003062,69.9995,323.342,269.5144,90.5665,-1.8022e-05,-3.08e-06,0.0,0 STARLINK-3078,1 49134U 21082E   23153.77190464 -.00000308  00000-0 -18022-4 0  9996,2 49134  69.9995 323.3420 0003062 269.5144  90.5665 14.98329663 95757,6950.194,96.107,574.187,569.931,0.0
49134.0,STARLINK-3078,PAYLOAD,2023-06-03 13:45:09,14.9832877,0.0003058,69.9996,321.3224,267.0947,92.9862,-1.7955e-05,-3.07e-06,0.0,0 STARLINK-3078,1 49134U 21082E   23154.57302520 -.00000307  00000-0 -17955-4 0  9996,2 49134  69.9996 321.3224 0003058 267.0947  92.9862 14.98328770 95873,6950.197,96.107,574.187,569.936,0.0
49134.0,STARLINK-3078,PAYLOAD,2023-06-03 18:33:33,14.98329129,0.0003061,69.9996,320.8172,267.9864,92.0945,-1.2577e-05,-2.43e-06,0.0,0 STARLINK-3078,1 49134U 21082E   23154.77330501 -.00000243  00000-0 -12577-4 0  9992,2 49134  69.9996 320.8172 0003061 267.9864  92.0945 14.98329129 95906,6950.196,96.107,574.188,569.933,0.0
49134.0,STARLINK-3078,PAYLOAD,2023-06-03 20:09:41,14.98329337,0.0003053,69.9997,320.6489,268.1152,91.9658,-7.901e-06,-1.87e-06,0.0,0 STARLINK-3078,1 49134U 21082E   23154.84006483 -.00000187  00000-0 -79010-5 0  9992,2 49134  69.9997 320.6489 0003053 268.1152  91.9658 14.98329337 95911,6950.195,96.107,574.182,569.938,0.0
49134.0,STARLINK-3078,PAYLOAD,2023-06-04 13:47:10,14.98328623,0.0003137,69.9996,318.7973,269.6351,90.4448,3.8892e-05,3.71e-06,0.0,0 STARLINK-3078,1 49134U 21082E   23155.57442442  .00000371  00000-0  38892-4 0  9997,2 49134  69.9996 318.7973 0003137 269.6351  90.4448 14.98328623 96027,6950.197,96.107,574.242,569.882,0.0
49134.0,STARLINK-3078,PAYLOAD,2023-06-04 18:35:34,14.98330081,0.0003113,69.9997,318.2924,269.5331,90.5471,5.5103e-05,5.65e-06,0.0,0 STARLINK-3078,1 49134U 21082E   23155.77470318  .00000565  00000-0  55103-4 0  9991,2 49134  69.9997 318.2924 0003113 269.5331  90.5471 14.98330081 96051,6950.193,96.107,574.221,569.894,0.0
49134.0,STARLINK-3078,PAYLOAD,2023-06-04 21:47:50,14.98332063,0.0003104,69.9997,317.9556,269.1837,90.8966,7.3801e-05,7.88e-06,0.0,0 STARLINK-3078,1 49134U 21082E   23155.90822136  .00000788  00000-0  73801-4 0  9997,2 49134  69.9997 317.9556 0003104 269.1837  90.8966 14.98332063 96071,6950.187,96.107,574.209,569.894,0.0
49134.0,STARLINK-3078,PAYLOAD,2023-06-05 13:49:11,14.98330478,0.0003148,69.9995,316.2723,269.6406,90.4393,5.1462e-05,5.21e-06,0.0,0 STARLINK-3078,1 49134U 21082E   23156.57582303  .00000521  00000-0  51462-4 0  9994,2 49134  69.9995 316.2723 0003148 269.6406  90.4393 14.98330478 96171,6950.191,96.107,574.244,569.868,0.0
49134.0,STARLINK-3078,PAYLOAD,2023-06-05 20:13:43,14.98332543,0.0003136,69.9996,315.599,269.7121,90.3678,6.9877e-05,7.41e-06,0.0,0 STARLINK-3078,1 49134U 21082E   23156.84286103  .00000741  00000-0  69877-4 0  9996,2 49134  69.9996 315.5990 0003136 269.7121  90.3678 14.98332543 96217,6950.185,96.107,574.23,569.87,0.0
49134.0,STARLINK-3078,PAYLOAD,2023-06-06 12:15:03,14.98332733,0.0003109,69.9996,313.915,269.1336,90.9467,4.6535e-05,4.62e-06,0.0,0 STARLINK-3078,1 49134U 21082E   23157.51046034  .00000462  00000-0  46535-4 0  9994,2 49134  69.9996 313.9150 0003109 269.1336  90.9467 14.98332733 96313,6950.184,96.107,574.21,569.889,0.0
